MEAN_MOTION;ECCENTRICITY;INCLINATION;RA_OF_ASC_NODE;ARG_OF_PERICENTER;MEAN_ANOMALY;BSTAR;MEAN_MOTION_DOT;MEAN_MOTION_DDOT;TYPE
0.99321451;0.0004036;5.4056;64.0149;295.0842;245.7112;0;3.3E-7;0;Intelsat
0.99321598;0.0004076;5.4067;64.0127;295.6277;79.4206;0;2.2E-7;0;Intelsat
0.9932179;0.0004095;5.4077;64.0106;296.2194;258.3893;0;1.2E-7;0;Intelsat
0.99322177;0.0004149;5.41;64.0061;297.6741;281.7001;0;-1.1E-7;0;Intelsat
0.99322317;0.0004174;5.4109;64.0042;298.2849;85.603;0;-2.1E-7;0;Intelsat
0.99322482;0.000419;5.4118;64.0026;298.9269;228.2784;0;-3.0E-7;0;Intelsat
0.99322563;0.000419;5.4121;64.0019;299.1338;279.3841;0;-3.3E-7;0;Intelsat
0.99322863;0.0004225;5.4138;63.9985;300.3642;200.2583;0;-5.2E-7;0;Intelsat
0.993229;0.0004225;5.4139;63.9984;300.5003;225.8502;0;-5.3E-7;0;Intelsat
0.9932321;0.0004239;5.4154;63.9952;301.5927;113.4806;0;-7.0E-7;0;Intelsat
0.99323378;0.000425;5.4162;63.994;302.2664;238.9254;0;-7.8E-7;0;Intelsat
0.99323868;0.0004265;5.4184;63.9897;303.9559;246.2847;0;-1.03E-6;0;Intelsat
0.99324395;0.0004269;5.4206;63.9849;305.6783;269.3579;0;-1.3E-6;0;Intelsat
0.99324866;0.0004263;5.4227;63.9801;307.2008;266.9775;0;-1.54E-6;0;Intelsat
0.99325304;0.0004246;5.4247;63.975;308.6164;264.6841;0;-1.78E-6;0;Intelsat
0.99325675;0.000422;5.4266;63.9696;309.9168;252.3464;0;-2.01E-6;0;Intelsat
0.99325999;0.0004184;5.4286;63.9637;311.1003;260.5006;0;-2.24E-6;0;Intelsat
0.99326189;0.0004143;5.4303;63.9591;311.8179;198.2658;0;-2.42E-6;0;Intelsat
0.99326224;0.0004141;5.4306;63.958;311.892;257.3265;0;-2.45E-6;0;Intelsat
0.99326331;0.0004112;5.4315;63.955;312.3196;77.9788;0;-2.55E-6;0;Intelsat
0.99326366;0.0004094;5.4325;63.9521;312.4824;264.007;0;-2.64E-6;0;Intelsat
0.99326425;0.0004065;5.4335;63.9489;312.7697;93.0988;0;-2.73E-6;0;Intelsat
0.99326407;0.0004047;5.4342;63.9468;312.7937;230.5315;0;-2.8E-6;0;Intelsat
0.99326366;0.0004;5.4362;63.9404;312.9339;255.1834;0;-2.95E-6;0;Intelsat
0.99326338;0.0003992;5.4368;63.9384;313.0422;23.3811;0;-2.99E-6;0;Intelsat
0.99326237;0.0003956;5.438;63.9344;312.7454;254.5163;0;-3.05E-6;0;Intelsat
0.99326028;0.0003918;5.4398;63.9283;312.4866;253.9351;0;-3.13E-6;0;Intelsat
0.99325841;0.0003898;5.4412;63.9239;312.3183;159.0358;0;-3.17E-6;0;Intelsat
0.99325739;0.0003887;5.4416;63.9222;312.0401;253.5135;0;-3.18E-6;0;Intelsat
0.99325411;0.0003868;5.4433;63.9165;311.6619;227.376;0;-3.19E-6;0;Intelsat
0.99324988;0.0003854;5.4452;63.9106;311.1585;227.0296;0;-3.17E-6;0;Intelsat
0.99324949;0.0003853;5.4453;63.9102;311.0969;252.7325;0;-3.17E-6;0;Intelsat
0.99324633;0.0003854;5.4466;63.9063;310.9734;128.8834;0;-3.15E-6;0;Intelsat
0.99324459;0.0003851;5.4472;63.9044;310.6159;250.2264;0;-3.13E-6;0;Intelsat
0.99324077;0.0003859;5.4485;63.9005;310.5386;139.327;0;-3.08E-6;0;Intelsat
0.99323904;0.000386;5.4491;63.8988;310.2305;251.8528;0;-3.05E-6;0;Intelsat
0.99323302;0.0003878;5.4511;63.8934;309.8573;251.3795;0;-2.95E-6;0;Intelsat
0.99322659;0.0003906;5.4531;63.8883;309.6193;250.7377;0;-2.82E-6;0;Intelsat
0.99322033;0.0003941;5.4549;63.8839;309.6533;224.181;0;-2.69E-6;0;Intelsat
0.99321302;0.0003993;5.4571;63.8793;309.8066;248.7827;0;-2.52E-6;0;Intelsat
0.99320591;0.0004049;5.4592;63.8752;310.2958;263.5345;0;-2.33E-6;0;Intelsat
0.99319955;0.0004102;5.4612;63.8715;311.0691;245.762;0;-2.13E-6;0;Intelsat
0.99319331;0.0004158;5.4633;63.8678;312.122;243.8281;0;-1.92E-6;0;Intelsat
0.9931874;0.0004211;5.4655;63.8637;313.4669;271.3772;0;-1.66E-6;0;Intelsat
0.9931874;0.0004211;5.4655;63.8637;313.4669;271.3772;0;-1.66E-6;0;Intelsat
0.99318281;0.0004254;5.4675;63.8604;314.7691;244.9354;0;-1.43E-6;0;Intelsat
0.99317892;0.0004291;5.4695;63.8567;316.2231;237.0592;0;-1.17E-6;0;Intelsat
0.99317592;0.000432;5.4717;63.8527;317.8038;243.4411;0;-9.0E-7;0;Intelsat
0.99317485;0.0004322;5.4728;63.8506;318.617;78.9966;0;-7.5E-7;0;Intelsat
0.99317349;0.0004333;5.4749;63.8466;320.1945;76.526;0;-4.9E-7;0;Intelsat
0.99317293;0.0004345;5.4758;63.8448;320.7747;229.8446;0;-3.8E-7;0;Intelsat
0.9931727;0.0004341;5.4778;63.8404;322.2508;227.4711;0;-1.4E-7;0;Intelsat
0.99317322;0.0004321;5.4789;63.8377;323.1868;71.7433;0;0;0;Intelsat
0.99317318;0.0004323;5.4798;63.8357;323.5954;225.2406;0;9.0E-8;0;Intelsat
0.99317426;0.0004292;5.4818;63.8306;324.8719;229.9324;0;3.0E-7;0;Intelsat
0.99317537;0.0004262;5.4829;63.8278;325.6285;67.5161;0;4.0E-7;0;Intelsat
0.99317542;0.0004258;5.483;63.8274;325.6914;90.7419;0;4.1E-7;0;Intelsat
0.99317562;0.0004252;5.4836;63.8261;325.8687;195.5383;0;4.6E-7;0;Intelsat
0.99317712;0.0004221;5.4848;63.8227;326.5394;65.7164;0;5.7E-7;0;Intelsat
0.99317762;0.0004204;5.4856;63.8208;326.7781;209.6939;0;6.3E-7;0;Intelsat
0.99317924;0.0004173;5.4867;63.8176;327.2201;64.1411;0;7.1E-7;0;Intelsat
0.99317974;0.0004153;5.4874;63.816;327.3464;183.1655;0;7.5E-7;0;Intelsat
0.99317997;0.000415;5.4875;63.8155;327.3994;217.9731;0;7.6E-7;0;Intelsat
0.99318257;0.0004095;5.4894;63.8105;327.8692;214.0568;0;8.6E-7;0;Intelsat
0.99318536;0.0004043;5.4911;63.8057;328.0849;189.7642;0;9.4E-7;0;Intelsat
0.99318554;0.000404;5.4912;63.8053;328.1131;215.8605;0;9.4E-7;0;Intelsat
0.99318861;0.000399;5.4929;63.8004;328.1613;188.7917;0;9.8E-7;0;Intelsat
0.99319212;0.000394;5.4947;63.7951;328.0953;187.9682;0;1.0E-6;0;Intelsat
0.99319584;0.0003896;5.4966;63.7896;327.9002;187.2387;0;9.8E-7;0;Intelsat
0.99319968;0.0003859;5.4984;63.7843;327.6236;186.627;0;9.4E-7;0;Intelsat
0.99319989;0.0003856;5.4985;63.784;327.5812;212.3094;0;9.3E-7;0;Intelsat
0.99320202;0.0003841;5.4996;63.7809;327.5241;57.5813;0;8.9E-7;0;Intelsat
0.99320381;0.0003828;5.5004;63.7788;327.2766;211.7355;0;8.5E-7;0;Intelsat
0.99320589;0.0003817;5.5015;63.7759;327.0731;57.1227;0;7.9E-7;0;Intelsat
0.99320777;0.0003809;5.5023;63.7737;326.8462;215.8391;0;7.4E-7;0;Intelsat
0.99320795;0.0003808;5.5025;63.7735;326.7926;236.956;0;7.3E-7;0;Intelsat
0.99320973;0.0003805;5.5034;63.7711;326.6915;56.6267;0;6.6E-7;0;Intelsat
0.99321048;0.0003804;5.5038;63.7702;326.7068;121.955;0;6.3E-7;0;Intelsat
0.99321493;0.0003806;5.5061;63.7649;326.3118;184.3838;0;4.4E-7;0;Intelsat
0.99321547;0.0003807;5.5064;63.7645;326.1865;235.8209;0;4.1E-7;0;Intelsat
0.99321841;0.0003823;5.5081;63.7608;326.1327;183.689;0;2.4E-7;0;Intelsat
0.99321891;0.0003825;5.5083;63.7604;326.1108;226.9611;0;2.2E-7;0;Intelsat
0.9932223;0.0003857;5.5104;63.7566;326.1377;234.1101;0;-1.0E-8;0;Intelsat
0.99322541;0.0003899;5.5124;63.753;326.4202;231.7234;0;-2.4E-7;0;Intelsat
0.99322839;0.0003948;5.5144;63.7499;326.9686;231.5104;0;-4.9E-7;0;Intelsat
0.99322994;0.0003985;5.5157;63.7479;327.3989;92.4659;0;-6.4E-7;0;Intelsat
0.99323247;0.0004028;5.5174;63.7451;328.2438;48.9247;0;-8.6E-7;0;Intelsat
0.99323279;0.0004037;5.5177;63.7447;328.3894;91.6848;0;-8.9E-7;0;Intelsat
0.99323371;0.0004053;5.5183;63.7437;328.8138;202.2874;0;-9.7E-7;0;Intelsat
0.99323625;0.0004101;5.5202;63.7406;329.9145;174.6528;0;-1.19E-6;0;Intelsat
0.99323685;0.0004105;5.5205;63.7403;330.2072;231.3865;0;-1.22E-6;0;Intelsat
0.99323876;0.0004139;5.522;63.7375;331.0993;133.6029;0;-1.39E-6;0;Intelsat
0.99324102;0.0004162;5.5235;63.735;332.2659;42.2841;0;-1.54E-6;0;Intelsat
0.99324243;0.0004189;5.5246;63.7329;333.1055;239.7809;0;-1.66E-6;0;Intelsat
0.99324637;0.0004219;5.5275;63.7273;335.37;37.4535;0;-1.92E-6;0;Intelsat
0.9932474;0.0004239;5.5286;63.7248;336.1353;241.9036;0;-2.02E-6;0;Intelsat
0.99324871;0.0004234;5.5296;63.7227;337.0047;60.6155;0;-2.1E-6;0;Intelsat
0.99325055;0.0004234;5.5315;63.7182;338.5163;58.2251;0;-2.24E-6;0;Intelsat
0.99325095;0.0004238;5.5325;63.7159;339.0899;237.2028;0;-2.31E-6;0;Intelsat
0.99325186;0.000422;5.5335;63.7135;339.9455;55.9315;0;-2.37E-6;0;Intelsat
0.99325194;0.0004216;5.5344;63.7111;340.4387;234.9907;0;-2.42E-6;0;Intelsat
0.99325236;0.0004184;5.5357;63.7078;341.4034;121.0669;0;-2.49E-6;0;Intelsat
0.99325228;0.0004181;5.5363;63.7061;341.6629;238.5553;0;-2.52E-6;0;Intelsat
0.99325251;0.0004153;5.5373;63.7037;342.3393;51.8047;0;-2.55E-6;0;Intelsat
0.99325192;0.0004135;5.5382;63.7012;342.7785;228.5654;0;-2.59E-6;0;Intelsat
0.99325178;0.0004104;5.5391;63.6987;343.3411;49.9506;0;-2.61E-6;0;Intelsat
0.99325085;0.0004077;5.5401;63.6962;343.6606;229.1833;0;-2.63E-6;0;Intelsat
0.9932492;0.0004015;5.5418;63.6915;344.3602;211.5943;0;-2.65E-6;0;Intelsat
0.9932483;0.0003981;5.5428;63.6887;344.7083;46.8181;0;-2.65E-6;0;Intelsat
0.99324676;0.0003942;5.5437;63.6862;344.931;226.1902;0;-2.65E-6;0;Intelsat
0.99324385;0.0003872;5.5454;63.6813;345.3064;224.9394;0;-2.62E-6;0;Intelsat
0.99323874;0.0003777;5.5481;63.6736;345.558;43.366;0;-2.53E-6;0;Intelsat
0.99323465;0.0003713;5.5498;63.6685;345.6063;42.4662;0;-2.46E-6;0;Intelsat
0.9932302;0.0003651;5.5516;63.6634;345.4985;41.691;0;-2.35E-6;0;Intelsat
0.99322547;0.00036;5.5535;63.6586;345.27;41.0018;0;-2.25E-6;0;Intelsat
0.99322311;0.0003577;5.5544;63.6564;345.0862;220.7636;0;-2.19E-6;0;Intelsat
0.99321542;0.0003535;5.5572;63.6499;344.6149;39.8908;0;-2.0E-6;0;Intelsat
0.99321172;0.0003522;5.5586;63.647;344.3533;296.3755;0;-1.9E-6;0;Intelsat
0.99320763;0.000352;5.5602;63.644;344.2936;230.0174;0;-1.79E-6;0;Intelsat
0.99320301;0.000353;5.5619;63.6407;344.2408;192.4171;0;-1.67E-6;0;Intelsat
0.99320144;0.0003536;5.5625;63.6397;344.014;296.673;0;-1.63E-6;0;Intelsat
0.99319801;0.0003555;5.5639;63.6373;344.2208;191.5392;0;-1.52E-6;0;Intelsat
0.9931931;0.0003598;5.566;63.634;344.4954;216.5455;0;-1.37E-6;0;Intelsat
0.99318856;0.0003652;5.5682;63.6303;345.0866;263.5664;0;-1.19E-6;0;Intelsat
0.9931844;0.0003713;5.5706;63.6263;346.2304;340.7799;0;-9.9E-7;0;Intelsat
0.99318201;0.0003765;5.5726;63.6231;347.3409;338.7619;0;-8.2E-7;0;Intelsat
0.99318045;0.0003816;5.5745;63.6195;348.4816;336.7003;0;-6.4E-7;0;Intelsat
0.99317954;0.0003867;5.5766;63.6153;349.9277;8.443;0;-4.5E-7;0;Intelsat
0.99317959;0.0003904;5.5782;63.6116;351.0681;314.6546;0;-2.9E-7;0;Intelsat
0.9931803;0.0003934;5.5804;63.6065;352.7687;6.6709;0;-1.0E-7;0;Intelsat
0.99318117;0.0003951;5.582;63.6025;353.8806;305.0549;0;4.0E-8;0;Intelsat
0.99318322;0.0003953;5.5841;63.5969;355.5043;1.0335;0;2.2E-7;0;Intelsat
